ONEWEB-0446             
1 51640U 22012U   25213.61456187  .00000146  00000+0  38098-3 0  9995
2 51640  87.8797 100.0312 0001610  73.2050 286.9254 13.10369827167477
ONEWEB-0448             
1 51641U 22012V   25213.23773932 -.00000191  00000+0 -58319-3 0  9994
2 51641  87.8798 100.1058 0001843  79.2451 280.8883 13.10371648167392
ONEWEB-0449             
1 51642U 22012W   25214.15901706 -.00000285  00000+0 -85168-3 0  9995
2 51642  87.8792  99.8946 0001809  93.4215 266.7119 13.10369620168826
ONEWEB-0451             
1 51643U 22012X   25213.51755680 -.00000010  00000+0 -59834-4 0  9991
2 51643  87.9031  69.4529 0001749  89.0315 271.1017 13.17648043171567
ONEWEB-0452             
1 51644U 22012Y   25213.89555183  .00000031  00000+0  47048-4 0  9994
2 51644  87.9034  69.4419 0001929  92.2342 267.9011 13.17647838171620
ONEWEB-0456             
1 51646U 22012AA  25213.63446435 -.00000689  00000+0 -20112-2 0  9999
2 51646  87.8797  99.9572 0001951  73.5677 286.5664 13.10371671168789
ONEWEB-0457             
1 51647U 22012AB  25213.61124673  .00000291  00000+0  79781-3 0  9999
2 51647  87.8796 100.0200 0001515  86.8756 273.2544 13.10370407168799
ONEWEB-0458             
1 51648U 22012AC  25213.17465204 -.00000581  00000+0 -17020-2 0  9990
2 51648  87.8786 100.0817 0001886  82.3160 277.8181 13.10371867167397
